Satellite: CAPE1
Catalog number: 31130
Epoch time:      07227.65833510
Element set:    0096
Inclination:      098.0797 deg
RA of node:       298.4070 deg
Eccentricity:    0.0102433
Arg of perigee:   201.7370 deg
Mean anomaly:     157.9472 deg
Mean motion:   14.51877319 rev/day
Decay rate:       2.54e-06 rev/day^2
Epoch rev:           01724
Checksum:              291

/EX





From r.hoad at att.net  Thu Aug 16 20:09:15 2007
From: r.hoad at att.net (Ray Hoad)
Date: Thu, 16 Aug 2007 22:09:15 -0500
Subject: [keps]  orb07228.2l.amsat
Message-ID: <46C5115B.7060805@att.net>

SB KEPS @ AMSAT  $ORB07228.N
2Line Orbital Elements 07228.AMSAT

HR AMSAT ORBITAL ELEMENTS FOR AMATEUR SATELLITES IN NASA FORMAT
FROM WA5QGD FORT WORTH,TX August 16, 2007
Send Subscribe/unsubscribe to KEPS at 
http://www.amsat.org/mailman/listinfo/keps
BID: ORB07228.N

DECODE 2-LINE ELSETS WITH THE FOLLOWING KEY:
1 AAAAAU 00  0  0 BBBBB.BBBBBBBB  .CCCCCCCC  00000-0  00000-0 0  DDDZ
2 AAAAA EEE.EEEE FFF.FFFF GGGGGGG HHH.HHHH III.IIII JJ.JJJJJJJJKKKKKZ
KEY: A-CATALOGNUM B-EPOCHTIME C-DECAY D-ELSETNUM E-INCLINATION F-RAAN
G-ECCENTRICITY H-ARGPERIGEE I-MNANOM J-MNMOTION K-ORBITNUM Z-CHECKSUM

TO ALL RADIO AMATEURS BT

AO-07
1 07530U 74089B   07228.55503607 -.00000028  00000-0  10000-3 0  9527
2 07530 101.5108 264.7790 0012006 136.9651 223.2365 12.53572373498684
AO-10
1 14129U 83058B   07228.28429466  .00000071  00000-0  10000-3 0  4123
2 14129 026.2404 261.4142 6065083 047.9046 349.8653 02.05866980181805
UO-11
1 14781U 84021B   07227.70346871  .00000158  00000-0  28428-4 0 04469
2 14781 098.1888 251.5461 0009042 347.6678 012.4328 14.79572700258530
RS-15
1 23439U 94085A   07227.58367778 -.00000039  00000-0  10597-3 0   524
2 23439 064.8178 270.8669 0157806 180.1483 179.9417 11.27552399520398
FO-29
1 24278U 96046B   07228.77041043 -.00000054  00000-0 -15342-4 0  5685
2 24278 098.5565 180.2936 0349896 286.4349 069.8608 13.52931387543097
SO-33
1 25509U 98061B   07228.44871693 -.00000086  00000-0 -31796-4 0  9969
2 25509 031.4309 245.0360 0355329 234.1918 122.5185 14.28169673459872
AO-40
1 26609U 00072B   07228.05566248 -.00000248  00000-0  10000-3 0  9200
2 26609 006.2331 126.3395 7967944 353.1605 000.7209 01.25587986 31191
VO-52
1 28650U 05017B   07227.75392905 -.00000048  00000-0  66228-6 0  7027
2 28650 097.8288 297.1292 0028321 060.7403 299.6656 14.81345905123237
PO-63
1 29712U 07001D   07228.76440953  .00000464  00000-0  68514-4 0  6434
2 29712 097.9179 287.0746 0013012 295.9607 064.0253 14.79793323 32298
AO-16
1 20439U 90005D   07228.54048998 -.00000002  00000-0  14277-4 0  1077
2 20439 098.1993 219.7807 0011661 011.6815 348.4640 14.31767598917186
LO-19
1 20442U 90005G   07227.52075698 -.00000059  00000-0 -67833-5 0 00333
2 20442 098.1817 228.0832 0012553 013.3029 346.8491 14.32007468917183
AO-27
1 22825U 93061C   07227.49555670  .00000024  00000-0  25881-4 0  7540
2 22825 098.3357 194.8067 0009433 085.7731 274.4543 14.29215162723960
IO-26
1 22826U 93061D   07227.88265062  .00000006  00000-0  18610-4 0 04546
2 22826 098.3285 196.2218 0009975 081.7498 278.4812 14.29461827724103
PO-28
1 22829U 93061G   07227.45962502 -.00000081  00000-0 -15423-4 0 07317
2 22829 098.3173 196.9761 0010798 059.2113 301.0126 14.30162681724289
GO-32
1 25397U 98043D   07227.78117367  .00000034  00000-0  33337-4 0  3756
2 25397 098.4105 272.3746 0002039 072.4942 287.6470 14.23129678472637
MO-46
1 26548U 00057D   07228.73369695 -.00000234  00000-0 -10798-4 0  8724
2 26548 064.5583 355.3520 0007953 190.8638 169.2243 14.83164674372519
NO-44
1 26931U 01043C   07228.46891177 -.00000124  00000-0 -16032-4 0  6601
2 26931 067.0543 352.2044 0007063 258.2801 101.7483 14.29492499306714
SO-50
1 27607U 02058C   07227.59871236  .00000015  00000-0  24418-4 0 03843
2 27607 064.5573 264.6493 0061379 344.2490 015.6710 14.71278478249868
CO-55
1 27844U 03031E   07227.55263518  .00000040  00000-0  39142-4 0 00971
2 27844 098.7193 235.0421 0009142 285.4573 074.5594 14.20526269213907
CO-57
1 27848U 03031J   07228.56704512  .00000035  00000-0  37011-4 0   563
2 27848 098.7184 235.2172 0009295 286.2427 073.7739 14.20343867214029
AO-51
1 28375U 04025K   07227.60695736 -.00000004  00000-0  11619-4 0 08880
2 28375 098.1087 263.8515 0085015 002.9804 357.1873 14.40576569164273
CO-56
1 28941U 06005C   07227.93825709  .00015912  23426-5  15820-3 0 05429
2 28941 098.1264 295.7660 0218644 061.3695 300.9354 15.42137289082631
HO-59
1 29484U 06041F   07228.66620233  .00039778  28791-5  24909-3 0  5961
2 29484 098.2802 287.7995 0192246 048.8199 312.9455 15.55728878 50468
NO-60
1 29661U 06055C   07150.05824307  .13324117  12618-4  10400-3 0  3000
2 29661 051.6186 176.5045 0007204 190.7749 188.7342 16.52052832 25544
NO-61
1 29664U 06055F   07228.81422642  .00032123  11673-4  85803-4 0  3895
2 29664 051.6307 131.9247 0009892 214.2177 145.8190 15.95638419 37829
CP4
1 31122U 07012F   07228.56711427  .00000597  00000-0  14251-3 0  1103
2 31122 098.0858 299.8880 0085512 197.1065 162.7248 14.55026301 17637
CP3
1 31128U 07012M   07227.65985393 -.00000048  00000-0  00000-0 0 01053
2 31128 098.0786 298.4068 0102720 201.6283 158.0582 14.51856783017450
LIBERT
1 31129U 07012N   07228.68637582  .00000384  00000-0  10000-3 0  3027
2 31129 098.0797 299.4060 0102297 198.4601 161.2863 14.51950411 17587
NOAA-10
1 16969U 86073A   07227.60824122 -.00000035  00000-0  38211-5 0 07692
2 16969 098.7444 244.8239 0012556 358.9951 001.1188 14.27331241087709
NOAA-11
1 19531U 88089A   07227.74725197 -.00000162  00000-0 -61163-4 0 07868
2 19531 098.8124 316.1713 0011095 218.2528 141.7879 14.14847433974577
NOAA-12
1 21263U 91032A   07227.54219572  .00000026  00000-0  29853-4 0 02860
2 21263 098.7546 224.6928 0011710 299.3322 060.6705 14.25489742844701
MET-3/5
1 21655U 91056A   07227.96046868  .00000051  00000-0  10000-3 0 03731
2 21655 082.5594 320.7177 0014592 060.8807 299.3773 13.17012214769274
MET-2/21
1 22782U 93055A   07227.88431605 -.00000124  00000-0 -12606-3 0  9050
2 22782 082.5508 354.5518 0023972 070.5959 289.7791 13.83617023704772
OKEAN-4
1 23317U 94066A   07227.77785953  .00000233  00000-0  25858-4 0 03466
2 23317 082.5352 240.9353 0023933 058.8387 301.5169 14.82525748692882
NOAA-14
1 23455U 94089A   07227.81316009  .00000237  00000-0  14947-3 0 07689
2 23455 098.9859 294.3061 0008550 293.1141 066.9142 14.13724754651067
SICH-1
1 23657U 95046A   07228.73750850  .00000094  00000-0  88306-5 0  1457
2 23657 082.5276 020.9847 0025327 047.2578 313.0751 14.81506811644994
NOAA-15
1 25338U 98030A   07227.58832789  .00000159  00000-0  86646-4 0 01170
2 25338 098.5328 222.6058 0009901 211.4440 148.6146 14.24660938481149
RESURS
1 25394U 98043A   07227.71681737  .00000002  00000-0  19125-4 0 07223
2 25394 098.4336 279.8770 0002169 037.5009 322.6321 14.24143122472826
FENGYUN1
1 25730U 99025A   07227.91888538  .00000501  00000-0  32150-3 0 02511
2 25730 098.6911 209.5278 0019654 324.6381 035.3484 14.07580632425877
OKEAN-0
1 25860U 99039A   07227.51618212  .00000040  00000-0  13288-4 0 01335
2 25860 097.7331 226.9987 0001126 103.2228 256.9104 14.73468249434235
NOAA-16
1 26536U 00055A   07227.55252513  .00000173  00000-0  11866-3 0 05440
2 26536 099.1205 205.5413 0010804 011.9195 348.2218 14.12447124355482
NOAA-17
1 27453U 02032A   07227.82642199 -.00000063  00000-0 -85152-5 0 05518
2 27453 098.5763 295.6888 0010739 281.0184 078.9789 14.23900639267203
NOAA-18
1 28654U 05018A   07227.81538666  .00000400  00000-0  24604-3 0 00815
2 28654 098.8301 168.1048 0015313 098.6690 261.6211 14.11088062115260
HUBBLE
1 20580U 90037B   07227.94648248  .00000276  00000-0  85368-5 0 09414
2 20580 028.4677 160.4348 0003370 012.6051 347.4621 15.00268722748947
UARS
1 21701U 91063B   07227.93121827  .00001957  00000-0  39132-4 0 01469
2 21701 056.9753 054.5707 0086269 309.9458 049.4041 15.48652396875006
PO-34
1 25520U 98064B   07227.91020000  .00000367  00000-0  83314-5 0 08080
2 25520 028.4595 069.0223 0005840 186.1533 173.8990 15.17034372486609
ISS
1 25544U 98067A   07229.01434028  .00008535  00000-0  57481-4 0  7989
2 25544 051.6358 149.8408 0007920 254.1848 283.2351 15.76112068500370
OO-38
1 26063U 00004C   07227.61081970 -.00000008  00000-0  17669-4 0 09869
2 26063 100.2290 241.2126 0037055 353.2972 006.7704 14.35812804395582
UWE-1
1 28892U 05043C   07227.71846543  .00000154  00000-0  42017-4 0 08220
2 28892 098.1230 123.1618 0016416 288.5834 071.3585 14.59531320095895
CO-58
1 28895U 05043F   07227.69526703  .00000046  00000-0  19337-4 0  8008
2 28895 098.1262 123.3729 0016871 289.0606 070.8789 14.59575610 95773
NCUBE2
1 28897U 05043H   07228.24325380  .00000074  00000-0  25192-4 0  3282
2 28897 098.1244 123.8615 0016406 289.4847 070.4579 14.59739489 88130
NMARS
1 29662U 06055D   07126.39603970  .07031946  12599-4  11450-3 0  2632
2 29662 051.6121 302.3682 0004459 252.1654 110.7411 16.47981436 21652
FCAL
1 29667U 06055J   07228.56815562  .00013985  11173-4  55857-4 0  2757
2 29667 051.6331 137.1545 0012351 215.2064 144.8137 15.90211631 37602
FALCON
1 30776U 07006E   07227.98279341  .00000231  00000-0  20019-4 0 01294
2 30776 035.4331 210.1667 0001429 284.6442 075.4118 15.02749221024053
MAST
1 31126U 07012K   07227.74193366  .00000393  00000-0  10000-3 0  1070
2 31126 098.0794 298.7700 0094345 200.6927 159.0404 14.53357991 17509
CAPE1
1 31130U 07012P   07227.65833510  .00000254  00000-0  69850-4 0 00968
2 31130 098.0797 298.4070 0102433 201.7370 157.9472 14.51877319017248
/EX





From r.hoad at att.net  Thu Aug 30 19:42:39 2007
From: r.hoad at att.net (Ray Hoad)
Date: Thu, 30 Aug 2007 21:42:39 -0500
Subject: [keps]  orb07242.2l.amsat
Message-ID: <46D7801F.7040202@att.net>

SB KEPS @ AMSAT  $ORB07242.N
2Line Orbital Elements 07242.AMSAT

HR AMSAT ORBITAL ELEMENTS FOR AMATEUR SATELLITES IN NASA FORMAT
FROM WA5QGD FORT WORTH,TX August 30, 2007
Send Subscribe/unsubscribe to KEPS at 
http://www.amsat.org/mailman/listinfo/keps
BID: ORB07242.N

DECODE 2-LINE ELSETS WITH THE FOLLOWING KEY:
1 AAAAAU 00  0  0 BBBBB.BBBBBBBB  .CCCCCCCC  00000-0  00000-0 0  DDDZ
2 AAAAA EEE.EEEE FFF.FFFF GGGGGGG HHH.HHHH III.IIII JJ.JJJJJJJJKKKKKZ
KEY: A-CATALOGNUM B-EPOCHTIME C-DECAY D-ELSETNUM E-INCLINATION F-RAAN
G-ECCENTRICITY H-ARGPERIGEE I-MNANOM J-MNMOTION K-ORBITNUM Z-CHECKSUM

TO ALL RADIO AMATEURS BT

AO-07
1 07530U 74089B   07241.64330773 -.00000028  00000-0  10000-3 0 09658
2 07530 101.5099 277.4770 0012143 111.9777 248.2584 12.53572334500328
AO-10
1 14129U 83058B   07241.39813590 -.00000203  00000-0  10000-3 0 04213
2 14129 026.1993 259.1802 6063574 051.5762 348.9347 02.05870027182070
UO-11
1 14781U 84021B   07242.85209885  .00000450  00000-0  67382-4 0  4596
2 14781 098.1880 266.9839 0008108 295.0989 064.9392 14.79577475260770
RS-15
1 23439U 94085A   07241.95174288 -.00000039  00000-0  10000-3 0 00634
2 23439 064.8139 247.6286 0157406 177.6242 182.5464 11.27552587522014
FO-29
1 24278U 96046B   07242.89542069 -.00000004  00000-0  34688-4 0  5811
2 24278 098.5536 192.5321 0349722 249.6973 106.6260 13.52931555545005
SO-33
1 25509U 98061B   07242.84891999  .00000236  00000-0  35977-4 0    84
2 25509 031.4319 163.6108 0355019 000.0718 359.9947 14.28173035461931
AO-40
1 26609U 00072B   07239.20300535 -.00000157  00000-0  10000-3 0 09269
2 26609 006.3227 124.1951 7963201 357.1674 000.5325 01.25588594031331
VO-52
1 28650U 05017B   07241.26335469 -.00000057  00000-0 -49287-6 0 07141
2 28650 097.8283 310.3282 0027632 018.1291 342.1019 14.81350308125237
PO-63
1 29712U 07001D   07242.76130851  .00000469  00000-0  69165-4 0  6857
2 29712 097.9165 300.8694 0012986 245.9694 114.0157 14.79806381 34367
AO-16
1 20439U 90005D   07241.46903417 -.00000004  00000-0  13803-4 0 01187
2 20439 098.2009 232.0043 0010803 334.3805 025.6884 14.31768524919036
LO-19
1 20442U 90005G   07242.54330573 -.00000004  00000-0  13440-4 0   454
2 20442 098.1834 242.2634 0011408 328.6877 031.3636 14.32008642919332
AO-27
1 22825U 93061C   07241.49728497  .00000132  00000-0  68163-4 0 07668
2 22825 098.3379 208.2087 0009359 049.2180 310.9843 14.29216729725967
IO-26
1 22826U 93061D   07242.51193279 -.00000015  00000-0  10454-4 0  4654
2 22826 098.3311 210.2200 0009788 043.3568 316.8378 14.29462711726193
PO-28
1 22829U 93061G   07241.45207432 -.00000028  00000-0  53412-5 0 07419
2 22829 098.3193 210.3612 0010241 021.2520 338.9123 14.30164261726285
GO-32
1 25397U 98043D   07242.54579848 -.00000159  00000-0 -52294-4 0  3891
2 25397 098.4098 286.4842 0001874 042.2786 317.8540 14.23129216474733
MO-46
1 26548U 00057D   07242.69106488  .00000086  00000-0  28192-4 0  8847
2 26548 064.5585 312.1751 0006625 187.3186 172.7842 14.83168942374587
NO-44
1 26931U 01043C   07241.62246901 -.00000190  00000-0 -41856-4 0  6721
2 26931 067.0548 318.3245 0007058 253.4438 106.5886 14.29493079308595
SO-50
1 27607U 02058C   07241.39693357 -.00000086  00000-0  86124-5 0 03957
2 27607 064.5561 222.7509 0062995 340.8981 018.9146 14.71280963251897
CO-55
1 27844U 03031E   07242.69639519  .00000038  00000-0  38226-4 0  1094
2 27844 098.7203 249.9825 0009008 235.4796 124.5535 14.20528577216058
CO-57
1 27848U 03031J   07242.51518468  .00000007  00000-0  23526-4 0   674
2 27848 098.7189 248.9732 0008942 239.8591 120.1687 14.20345388216000
AO-51
1 28375U 04025K   07241.15099103 -.00000004  00000-0  11830-4 0 08999
2 28375 098.1079 276.6915 0084306 322.2249 037.3204 14.40577681166210
CO-56
1 28941U 06005C   07241.62681755  .00022100  24889-5  21645-3 0 05481
2 28941 098.1242 311.0207 0216236 012.7917 347.8745 15.42656407084744
HO-59
1 29484U 06041F   07242.68281987  .00037402  29346-5  23297-3 0  6383
2 29484 098.2756 304.0499 0186832 358.1764 001.8682 15.56839442 52646
NO-60
1 29661U 06055C   07150.05824307  .13324117  12618-4  10400-3 0  3000
2 29661 051.6186 176.5045 0007204 190.7749 188.7342 16.52052832 25544
NO-61
1 29664U 06055F   07242.71323542  .00039763  11928-4  98186-4 0  4292
2 29664 051.6276 058.1744 0010042 275.4679 084.5162 15.96720367 40042
CP4
1 31122U 07012F   07241.63317693  .00000550  00000-0  13192-3 0 01239
2 31122 098.0796 312.5207 0086337 156.8764 203.6341 14.55029402019533
CP3
1 31128U 07012M   07241.44360125 -.00000047  00000-0  00000-0 0 01167
2 31128 098.0798 311.6696 0103741 158.9518 201.5998 14.51860460019451
LIBERT
1 31129U 07012N   07242.67601933  .00000338  00000-0  89029-4 0  3378
2 31129 098.0785 312.8693 0102805 155.1402 205.4714 14.51952580 19611
NOAA-10
1 16969U 86073A   07241.62832823  .00000050  00000-0  38568-4 0 07866
2 16969 098.7452 258.8518 0011887 317.5324 042.4935 14.27332593089705
NOAA-11
1 19531U 88089A   07241.32520845 -.00000213  00000-0 -87382-4 0 08073
2 19531 098.8115 329.5784 0011534 178.8628 181.2683 14.14848719976496
NOAA-12
1 21263U 91032A   07241.51019894  .00000092  00000-0  57663-4 0 03097
2 21263 098.7561 238.6427 0011544 254.9086 105.0897 14.25492019846693
MET-3/5
1 21655U 91056A   07242.85048635  .00000051  00000-0  10000-3 0  3145
2 21655 082.5592 310.2019 0014207 026.8144 333.3711 13.17011163771232
MET-2/21
1 22782U 93055A   07241.76878421 -.00000018  00000-0 -29356-4 0 09204
2 22782 082.5528 343.5425 0023384 033.5380 326.7261 13.83616334706694
OKEAN-4
1 23317U 94066A   07241.61411134  .00000289  00000-0  32933-4 0 03588
2 23317 082.5360 228.0238 0022733 015.9099 344.2844 14.82528860694931
NOAA-14
1 23455U 94089A   07241.68495654 -.00000147  00000-0 -53543-4 0 07884
2 23455 098.9841 308.2428 0008675 249.4190 110.6069 14.13723305653020
SICH-1
1 23657U 95046A   07241.63769399  .00000007  00000-0 -21724-5 0 01589
2 23657 082.5302 008.9529 0024178 006.1983 353.9504 14.81508475646904
NOAA-15
1 25338U 98030A   07241.49429499 -.00000003  00000-0  16943-4 0 01358
2 25338 098.5346 236.1271 0010800 169.9361 190.2086 14.24662201483126
RESURS
1 25394U 98043A   07241.69809706 -.00000020  00000-0  95289-5 0 07366
2 25394 098.4317 293.2952 0001704 009.5262 350.5950 14.24143795474816
FENGYUN1
1 25730U 99025A   07242.91744480  .00000475  00000-0  30615-3 0  2092
2 25730 098.6925 223.9666 0018217 280.3543 079.5571 14.07592339427983
OKEAN-0
1 25860U 99039A   07241.57320732  .00000025  00000-0  10989-4 0 01455
2 25860 097.7339 240.4048 0001665 096.6966 263.4431 14.73470166436301
NOAA-16
1 26536U 00055A   07241.50764531  .00000137  00000-0  99320-4 0 05665
2 26536 099.1231 219.7500 0010111 332.5733 027.4973 14.12448541357453
NOAA-17
1 27453U 02032A   07241.66949521  .00000018  00000-0  26723-4 0 05702
2 27453 098.5749 309.1922 0011040 237.0567 122.9568 14.23904282269170
NOAA-18
1 28654U 05018A   07241.64220389 -.00000152  00000-0 -60417-4 0 01003
2 28654 098.8305 181.7030 0015399 062.0597 298.2121 14.11088707117210
HUBBLE
1 20580U 90037B   07241.84996683  .00000325  00000-0  12318-4 0  9495
2 20580 028.4673 069.7592 0003978 161.1626 198.9110 15.00272658751036
UARS
1 21701U 91063B   07241.80924394  .00003448  00000-0  62141-4 0  1554
2 21701 056.9769 354.3010 0088533 338.1917 021.5380 15.48727417877153
PO-34
1 25520U 98064B   07241.59382281  .00000460  00000-0  12931-4 0  8116
2 25520 028.4612 337.4238 0004947 334.3455 025.6891 15.17040060488689
ISS
1 25544U 98067A   07242.82805392  .00014684  00000-0  94687-4 0  8891
2 25544 051.6347 078.6658 0008401 309.0313 184.9537 15.76384560502559
OO-38
1 26063U 00004C   07241.61742850 -.00000009  00000-0  17352-4 0 09989
2 26063 100.2295 257.8099 0036643 313.8140 046.0015 14.35813679397585
UWE-1
1 28892U 05043C   07241.42963222  .00000150  00000-0  41187-4 0 08355
2 28892 098.1218 136.5881 0016298 242.6581 117.3094 14.59534805097898
CO-58
1 28895U 05043F   07241.26890636  .00000276  00000-0  67661-4 0 08138
2 28895 098.1248 136.6707 0016853 244.4619 115.4988 14.59579742097756
NCUBE2
1 28897U 05043H   07241.67827709  .00000059  00000-0  21965-4 0  3407
2 28897 098.1200 137.0212 0016209 243.5551 116.3999 14.59742612 90092
NMARS
1 29662U 06055D   07126.39603970  .07031946  12599-4  11450-3 0  2632
2 29662 051.6121 302.3682 0004459 252.1654 110.7411 16.47981436 21652
FCAL
1 29667U 06055J   07241.95166224  .00018176  11238-4  67656-4 0 03063
2 29667 051.6318 066.7339 0012104 272.5079 087.4548 15.90672055039738
FALCON
1 30776U 07006E   07241.86847467  .00000171  00000-0  15629-4 0 01325
2 30776 035.4331 125.9846 0001486 339.4114 020.6545 15.02754657026140
MAST
1 31126U 07012K   07241.64915856  .00000343  00000-0  88342-4 0 01206
2 31126 098.0774 312.1834 0095141 157.5783 202.9614 14.53361232019529
CAPE1
1 31130U 07012P   07242.88917160 -.00000353  00000-0 -70790-4 0  1052
2 31130 098.0763 313.0620 0103551 154.6361 205.9970 14.51878568 19453
/EX





From r.hoad at att.net  Thu Aug 30 19:41:23 2007
From: r.hoad at att.net (Ray Hoad)
Date: Thu, 30 Aug 2007 21:41:23 -0500
Subject: [keps]  orb07242.amsat
Message-ID: <46D77FD3.5010706@att.net>

SB KEPS @ AMSAT  $ORB07242.O
Orbital Elements  07242.OSCAR

HR AMSAT ORBITAL ELEMENTS FOR OSCAR SATELLITES
FROM WA5QGD FORT WORTH,TX August 30, 2007
Send Subscribe/unsubscribe to KEPS at 
http://www.amsat.org/mailman/listinfo/keps
BID: ORB07242.O
TO ALL RADIO AMATEURS BT

